NORAD_CAT_ID,OBJECT_NAME,OBJECT_TYPE,EPOCH,MEAN_MOTION,ECCENTRICITY,INCLINATION,RA_OF_ASC_NODE,ARG_OF_PERICENTER,MEAN_ANOMALY,BSTAR,MEAN_MOTION_DOT,MEAN_MOTION_DDOT,TLE_LINE0,TLE_LINE1,TLE_LINE2,SEMIMAJOR_AXIS,PERIOD,APOGEE,PERIGEE,DECAYED
56812.0,STARLINK-6065,PAYLOAD,2023-12-25 14:00:01,14.99316435,0.0002981,69.9992,194.3434,263.6724,260.4934,-0.00040239,-5.016e-05,0.0,0 STARLINK-6065,1 56812U 23078AX  23359.58334491 -.00005016  00000-0 -40239-3 0  9996,2 56812  69.9992 194.3434 0002981 263.6724 260.4934 14.99316435  5958,6947.144,96.044,571.08,566.938,0.0
56812.0,STARLINK-6065,PAYLOAD,2023-12-25 22:00:00,14.99295239,0.0002986,69.9992,193.5016,270.9351,251.8997,0.0013589,0.0001657,0.0,0 STARLINK-6065,1 56812U 23078AX  23359.91667824  .00016570  00000-0  13589-2 0  9994,2 56812  69.9992 193.5016 0002986 270.9351 251.8997 14.99295239 32891,6947.21,96.045,571.149,567.0,0.0
56812.0,STARLINK-6065,PAYLOAD,2023-12-26 14:53:22,14.99303637,0.0002909,69.9983,191.7238,269.1788,90.9038,1.4807e-05,8.7e-07,0.0,0 STARLINK-6065,1 56812U 23078AX  23360.62039953  .00000087  00000-0  14807-4 0  9992,2 56812  69.9983 191.7238 0002909 269.1788  90.9038 14.99303637 32739,6947.184,96.045,571.07,567.028,0.0
56812.0,STARLINK-6065,PAYLOAD,2023-12-26 19:41:35,14.99303657,0.0002901,69.9986,191.2186,269.3147,90.7681,1.5025e-05,9e-07,0.0,0 STARLINK-6065,1 56812U 23078AX  23360.82054944  .00000090  00000-0  15025-4 0  9998,2 56812  69.9986 191.2186 0002901 269.3147  90.7681 14.99303657 33029,6947.184,96.045,571.064,567.033,0.0
56812.0,STARLINK-6065,PAYLOAD,2023-12-26 21:17:39,14.99303762,0.0002899,69.9986,191.0501,269.3495,90.7332,1.5791e-05,9.9e-07,0.0,0 STARLINK-6065,1 56812U 23078AX  23360.88726597  .00000099  00000-0  15791-4 0  9993,2 56812  69.9986 191.0501 0002899 269.3495  90.7332 14.99303762 32771,6947.183,96.045,571.062,567.034,0.0
56812.0,STARLINK-6065,PAYLOAD,2023-12-27 14:54:31,14.99243876,0.0004228,69.9988,189.1973,295.6084,64.4638,-0.00063664,-7.864e-05,0.0,0 STARLINK-6065,1 56812U 23078AX  23361.62120340 -.00007864  00000-0 -63664-3 0  9990,2 56812  69.9988 189.1973 0004228 295.6084  64.4638 14.99243876 32886,6947.368,96.048,572.171,566.296,0.0
56812.0,STARLINK-6065,PAYLOAD,2023-12-27 19:42:45,14.99239662,0.0002727,69.9989,188.692,270.2033,89.8814,-0.00066777,-8.242e-05,0.0,0 STARLINK-6065,1 56812U 23078AX  23361.82136200 -.00008242  00000-0 -66777-3 0  9993,2 56812  69.9989 188.6920 0002727 270.2033  89.8814 14.99239662 33176,6947.381,96.049,571.141,567.352,0.0
56812.0,STARLINK-6065,PAYLOAD,2023-12-27 21:18:46,14.99285348,0.0003576,69.9985,188.5238,252.255,107.8219,-0.00017872,-2.279e-05,0.0,0 STARLINK-6065,1 56812U 23078AX  23361.88803806 -.00002279  00000-0 -17872-3 0  9998,2 56812  69.9985 188.5238 0003576 252.2550 107.8219 14.99285348 32924,6947.24,96.046,571.589,566.621,0.0
56812.0,STARLINK-6065,PAYLOAD,2023-12-27 22:54:50,14.99286677,0.000273,70.0004,188.3577,255.8037,104.2819,-0.00011498,-1.5e-05,0.0,0 STARLINK-6065,1 56812U 23078AX  23361.95475560 -.00001500  00000-0 -11498-3 0  9992,2 56812  70.0004 188.3577 0002730 255.8037 104.2819 14.99286677 33196,6947.236,96.046,570.998,567.204,0.0
56812.0,STARLINK-6065,PAYLOAD,2023-12-28 11:43:25,14.99295536,0.0002977,69.9993,187.0079,268.3203,91.7616,-3.6208e-05,-5.37e-06,0.0,0 STARLINK-6065,1 56812U 23078AX  23362.48848506 -.00000537  00000-0 -36208-4 0  9991,2 56812  69.9993 187.0079 0002977 268.3203  91.7616 14.99295536 33278,6947.209,96.045,571.142,567.005,0.0
56812.0,STARLINK-6065,PAYLOAD,2023-12-28 14:55:33,14.99297836,0.0002739,69.9995,186.6714,267.6495,92.4351,-7.3123e-06,-1.83e-06,0.0,0 STARLINK-6065,1 56812U 23078AX  23362.62191708 -.00000183  00000-0 -73123-5 0  9997,2 56812  69.9995 186.6714 0002739 267.6495  92.4351 14.99297836 33035,6947.202,96.045,570.969,567.164,0.0
56812.0,STARLINK-6065,PAYLOAD,2023-12-28 21:19:50,14.9929905,0.0002758,69.9994,185.9976,269.9863,90.0981,1.0752e-05,3.8e-07,0.0,0 STARLINK-6065,1 56812U 23078AX  23362.88878393  .00000038  00000-0  10752-4 0  9992,2 56812  69.9994 185.9976 0002758 269.9863  90.0981 14.99299050 33078,6947.198,96.045,570.979,567.147,0.0
56812.0,STARLINK-6065,PAYLOAD,2023-12-29 14:56:38,14.9926718,0.0002645,69.9991,184.144,266.5821,93.5036,0.00060002,7.249e-05,0.0,0 STARLINK-6065,1 56812U 23078AX  23363.62266999  .00007249  00000-0  60002-3 0  9991,2 56812  69.9991 184.1440 0002645 266.5821  93.5036 14.99267180 33184,6947.296,96.047,570.999,567.324,0.0
56812.0,STARLINK-6065,PAYLOAD,2023-12-29 19:44:51,14.992712,0.0002629,69.9992,183.6386,266.8802,93.2057,0.00060238,7.279e-05,0.0,0 STARLINK-6065,1 56812U 23078AX  23363.82282143  .00007279  00000-0  60238-3 0  9996,2 56812  69.9992 183.6386 0002629 266.8802  93.2057 14.99271200 33472,6947.284,96.047,570.975,567.322,0.0
56812.0,STARLINK-6065,PAYLOAD,2023-12-29 21:20:56,14.99270724,0.0002808,69.9991,183.4701,271.8446,88.2392,0.00060585,7.321e-05,0.0,0 STARLINK-6065,1 56812U 23078AX  23363.88953960  .00007321  00000-0  60585-3 0  9997,2 56812  69.9991 183.4701 0002808 271.8446  88.2392 14.99270724 33228,6947.285,96.047,571.101,567.2,0.0
56812.0,STARLINK-6065,PAYLOAD,2023-12-30 11:45:34,14.9930942,0.0002855,69.9991,181.9538,268.7864,91.2968,5.8435e-05,6.21e-06,0.0,0 STARLINK-6065,1 56812U 23078AX  23364.48998253  .00000621  00000-0  58435-4 0  9996,2 56812  69.9991 181.9538 0002855 268.7864  91.2968 14.99309420 33577,6947.166,96.044,571.014,567.047,0.0
56812.0,STARLINK-6065,PAYLOAD,2023-12-30 14:57:43,14.99310196,0.0002837,69.9992,181.6169,268.6139,91.4696,6.5568e-05,7.09e-06,0.0,0 STARLINK-6065,1 56812U 23078AX  23364.62341456  .00000709  00000-0  65568-4 0  9991,2 56812  69.9992 181.6169 0002837 268.6139  91.4696 14.99310196 33335,6947.163,96.044,570.999,567.057,0.0
56812.0,STARLINK-6065,PAYLOAD,2023-12-30 21:22:00,14.99311964,0.0002878,69.9991,180.9429,270.4271,89.6559,7.5553e-05,8.31e-06,0.0,0 STARLINK-6065,1 56812U 23078AX  23364.89027850  .00000831  00000-0  75553-4 0  9990,2 56812  69.9991 180.9429 0002878 270.4271  89.6559 14.99311964 33373,6947.158,96.044,571.022,567.024,0.0
56812.0,STARLINK-6065,PAYLOAD,2023-12-31 11:46:38,14.99310456,0.0002838,69.9991,179.4264,269.4817,90.6017,2.632e-06,-6.2e-07,0.0,0 STARLINK-6065,1 56812U 23078AX  23365.49072849 -.00000062  00000-0  26320-5 0  9991,2 56812  69.9991 179.4264 0002838 269.4817  90.6017 14.99310456 33728,6947.163,96.044,570.999,567.056,0.0
56812.0,STARLINK-6065,PAYLOAD,2023-12-31 21:23:04,14.99310802,0.0002849,69.9992,178.4158,269.682,90.4013,4.3733e-06,-4e-07,0.0,0 STARLINK-6065,1 56812U 23078AX  23365.89102610 -.00000040  00000-0  43733-5 0  9998,2 56812  69.9992 178.4158 0002849 269.6820  90.4013 14.99310802 33525,6947.161,96.044,571.006,567.047,0.0
56812.0,STARLINK-6065,PAYLOAD,2024-01-01 11:47:43,14.99309177,0.000282,69.9993,176.8996,269.4194,90.6643,-6.2642e-05,-8.6e-06,0.0,0 STARLINK-6065,1 56812U 23078AX  24001.49147634 -.00000860  00000-0 -62642-4 0  9997,2 56812  69.9993 176.8996 0002820 269.4194  90.6643 14.99309177 33871,6947.167,96.044,570.991,567.072,0.0
56812.0,STARLINK-6065,PAYLOAD,2024-01-01 14:59:52,14.99307764,0.0002843,69.9992,176.563,269.5755,90.5078,-7.6488e-05,-1.03e-05,0.0,0 STARLINK-6065,1 56812U 23078AX  24001.62491037 -.00001030  00000-0 -76488-4 0  9994,2 56812  69.9992 176.5630 0002843 269.5755  90.5078 14.99307764 33636,6947.171,96.044,571.011,567.061,0.0
56812.0,STARLINK-6065,PAYLOAD,2024-01-01 21:24:09,14.99307931,0.0002847,69.9993,175.8893,269.8016,90.2817,-6.7683e-05,-9.22e-06,0.0,0 STARLINK-6065,1 56812U 23078AX  24001.89177587 -.00000922  00000-0 -67683-4 0  9990,2 56812  69.9993 175.8893 0002847 269.8016  90.2817 14.99307931 33675,6947.17,96.044,571.013,567.058,0.0
56812.0,STARLINK-6065,PAYLOAD,2024-01-02 11:48:48,14.99304323,0.0002816,69.9995,174.3728,268.946,91.1377,-4.4673e-05,-6.4e-06,0.0,0 STARLINK-6065,1 56812U 23078AX  24002.49222592 -.00000640  00000-0 -44673-4 0  9995,2 56812  69.9995 174.3728 0002816 268.9460  91.1377 14.99304323 34020,6947.182,96.045,571.003,567.09,0.0
56812.0,STARLINK-6065,PAYLOAD,2024-01-02 15:00:56,14.9930412,0.0002823,69.9994,174.0359,269.031,91.0526,-4.5517e-05,-6.51e-06,0.0,0 STARLINK-6065,1 56812U 23078AX  24002.62565928 -.00000651  00000-0 -45517-4 0  9993,2 56812  69.9994 174.0359 0002823 269.0310  91.0526 14.99304120 33782,6947.182,96.045,571.008,567.086,0.0
56812.0,STARLINK-6065,PAYLOAD,2024-01-02 21:25:14,14.99304744,0.0002816,69.9995,173.3621,269.0727,91.011,-3.4082e-05,-5.11e-06,0.0,0 STARLINK-6065,1 56812U 23078AX  24002.89252504 -.00000511  00000-0 -34082-4 0  9995,2 56812  69.9995 173.3621 0002816 269.0727  91.0110 14.99304744 33827,6947.18,96.045,571.002,567.089,0.0
56812.0,STARLINK-6065,PAYLOAD,2024-01-03 11:49:53,14.99320996,0.0002522,69.9997,171.8455,264.7031,95.3841,-0.00032506,-4.071e-05,0.0,0 STARLINK-6065,1 56812U 23078AX  24003.49297556 -.00004071  00000-0 -32506-3 0  9991,2 56812  69.9997 171.8455 0002522 264.7031  95.3841 14.99320996 34175,6947.13,96.043,570.747,567.243,0.0
56812.0,STARLINK-6065,PAYLOAD,2024-01-03 13:25:57,14.9932376,0.000256,69.9996,171.6771,264.514,95.5728,-0.00037952,-4.737e-05,0.0,0 STARLINK-6065,1 56812U 23078AX  24003.55969161 -.00004737  00000-0 -37952-3 0  9995,2 56812  69.9996 171.6771 0002560 264.5140  95.5728 14.99323760 33924,6947.121,96.043,570.765,567.208,0.0
56812.0,STARLINK-6065,PAYLOAD,2024-01-03 19:50:14,14.99299432,0.0002802,69.9996,171.0037,269.4635,90.6204,-1.4126e-05,-2.67e-06,0.0,0 STARLINK-6065,1 56812U 23078AX  24003.82656174 -.00000267  00000-0 -14126-4 0  9995,2 56812  69.9996 171.0037 0002802 269.4635  90.6204 14.99299432 34222,6947.197,96.045,571.008,567.115,0.0
56812.0,STARLINK-6065,PAYLOAD,2024-01-04 13:27:02,14.99298276,0.0002909,69.9996,169.1515,271.0755,89.0072,5.3014e-05,5.55e-06,0.0,0 STARLINK-6065,1 56812U 23078AX  24004.56044453  .00000555  00000-0  53014-4 0  9995,2 56812  69.9996 169.1515 0002909 271.0755  89.0072 14.99298276 34074,6947.2,96.045,571.086,567.044,0.0
